FENGYUN 1C DEB          
1 37061U 99025EEV 17344.94455204  .00000521  00000-0  31445-3 0  9992
2 37061  98.0474  26.9342 0909793 198.0696 158.5998 12.89512300663284
